API VERSION: 1.2
API SOURCE: NASA/JPL Horizons API



*******************************************************************************
Ephemeris / API_USER Wed Apr 15 12:10:54 2026 Pasadena, USA      / Horizons
*******************************************************************************
Target body name: Mercury (199)                   {source: DE441}
Center body name: Sun (10)                        {source: DE441}
Center-site name: BODY CENTER
*******************************************************************************
Start time      : A.D. 2300-Jan-01 00:00:00.0000 TDB
Stop  time      : A.D. 2399-Dec-18 00:00:00.0000 TDB
Step-size       : 43200 minutes
*******************************************************************************
Center geodetic : 0.0, 0.0, 0.0                   {E-lon(deg),Lat(deg),Alt(km)}
Center cylindric: 0.0, 0.0, 0.0                   {E-lon(deg),Dxy(km),Dz(km)}
Center radii    : 695700.0, 695700.0, 695700.0 km {Equator_a, b, pole_c}
Output units    : AU-D
Calendar mode   : Mixed Julian/Gregorian
Output type     : GEOMETRIC cartesian states
Output format   : 3 (position, velocity, LT, range, range-rate)
Reference frame : Ecliptic of J2000.0
*******************************************************************************
            JDTDB,            Calendar Date (TDB),                      X,                      Y,                      Z,                     VX,                     VY,                     VZ,                     LT,                     RG,                     RR,
**************************************************************************************************************************************************************************************************************************************************************************
$$SOE
2581817.500000000, A.D. 2356-Sep-04 00:00:00.0000, -3.126075093837680E-01, -3.221169264023470E-01,  1.942186773308817E-03,  1.445660557273891E-02, -1.835964321793354E-02, -2.821911569694881E-03,  2.592471481096098E-03,  4.488725223128278E-01,  3.094927028464328E-03,
2581847.500000000, A.D. 2356-Oct-04 00:00:00.0000,  2.849899689328318E-01, -3.044778487503830E-01, -5.090953870453524E-02,  1.494459411566925E-02,  2.051222598373410E-02,  3.272067935158638E-04,  2.426527676011374E-03,  4.201402431368675E-01, -4.767734125714402E-03,
2581877.500000000, A.D. 2356-Nov-03 00:00:00.0000, -9.054252584442647E-02,  2.990752699839450E-01,  3.279722702754140E-02, -3.259133062670969E-02, -7.165867649794903E-03,  2.372712555663031E-03,  1.814649332792531E-03,  3.141967921589180E-01,  2.818571061198928E-03,
2581907.500000000, A.D. 2356-Dec-03 00:00:00.0000, -2.812365483970733E-01, -3.571751051515284E-01, -3.788566873306095E-03,  1.639372684980975E-02, -1.614541887285425E-02, -2.816012326090788E-03,  2.625685585630587E-03,  4.546233662420556E-01,  2.566729443938052E-03,
2581937.500000000, A.D. 2357-Jan-02 00:00:00.0000,  3.128543944307166E-01, -2.603939118059061E-01, -4.981916482449292E-02,  1.242917136311039E-02,  2.288476126675312E-02,  7.507004374296935E-04,  2.368418953400589E-03,  4.100790297052537E-01, -5.140304046402564E-03,
2581967.500000000, A.D. 2357-Feb-01 00:00:00.0000, -1.545375525832289E-01,  2.788727469650514E-01,  3.695206519183641E-02, -3.028845459195197E-02, -1.261473406911776E-02,  1.715762513341615E-03,  1.853728337210206E-03,  3.209631120240916E-01,  3.820373819888372E-03,
2581997.500000000, A.D. 2357-Mar-03 00:00:00.0000, -2.462097926625000E-01, -3.875979615820958E-01, -9.471094436466279E-03,  1.805590319520533E-02, -1.379979087354703E-02, -2.774312737192028E-03,  2.652599079467794E-03,  4.592832932464793E-01,  2.023819334207240E-03,
2582027.500000000, A.D. 2357-Apr-02 00:00:00.0000,  3.351797557514916E-01, -2.117046653278420E-01, -4.784760727593499E-02,  9.485860252930000E-03,  2.502496629166605E-02,  1.193973863664134E-03,  2.306260202137525E-03,  3.993165755503211E-01, -5.448215067145390E-03,
2582057.500000000, A.D. 2357-May-02 00:00:00.0000, -2.129085298962855E-01,  2.484027640096820E-01,  3.975254334985975E-02, -2.707242384479719E-02, -1.724309072724394E-02,  1.043290816093263E-03,  1.903418782113871E-03,  3.295667458543561E-01,  4.618767055077075E-03,
2582087.500000000, A.D. 2357-Jun-01 00:00:00.0000, -2.080813417557455E-01, -4.131460561811691E-01, -1.503460489368327E-02,  1.944970840922827E-02, -1.134411710277101E-02, -2.699205217198002E-03,  2.673095247222672E-03,  4.628320946836273E-01,  1.469728031176166E-03,
2582117.500000000, A.D. 2357-Jul-01 00:00:00.0000,  3.510802710052492E-01, -1.589704667440245E-01, -4.495982817088185E-02,  6.098710879366774E-03,  2.685011480587272E-02,  1.651690115127651E-03,  2.240948388996591E-03,  3.880081856547455E-01, -5.673844005538806E-03,
2582147.500000000, A.D. 2357-Jul-31 00:00:00.0000, -2.640718100818297E-01,  2.094738580847199E-01,  4.120306148568707E-02, -2.323627897701545E-02, -2.093623479941511E-02,  3.913060891099408E-04,  1.961219339193210E-03,  3.395746020782247E-01,  5.202318930401488E-03,
2582177.500000000, A.D. 2357-Aug-30 00:00:00.0000, -1.673898885580348E-01, -4.336113127168240E-01, -2.041335055844841E-02,  2.057959156789953E-02, -8.796947148248602E-03, -2.592597875986498E-03,  2.687043068608255E-03,  4.652470850940398E-01,  9.082568909512084E-04,
2582207.500000000, A.D. 2357-Sep-29 00:00:00.0000,  3.596472613591330E-01, -1.029281607325011E-01, -4.113396013579353E-02,  2.263898017533247E-03,  2.825843135393432E-02,  2.115834961432421E-03,  2.173562911547303E-03,  3.763407519142102E-01, -5.796386126949776E-03,
2582237.500000000, A.D. 2357-Oct-29 00:00:00.0000, -3.070475412533711E-01,  1.640163923098280E-01,  4.137330799117359E-02, -1.904997695873129E-02, -2.368224153354316E-02, -2.146835166426160E-04,  2.024657522649342E-03,  3.505585830502578E-01,  5.579924997685702E-03,
2582267.500000000, A.D. 2357-Nov-28 00:00:00.0000, -1.246756192791787E-01, -4.488219966718744E-01, -2.554426502603491E-02,  2.144799665938876E-02, -6.174159939881984E-03, -2.456019295816955E-03,  2.694374965620582E-03,  4.665165637090446E-01,  3.425253172432842E-04,
2582297.500000000, A.D. 2357-Dec-28 00:00:00.0000,  3.599873055147604E-01, -4.456335520739245E-02, -3.636978047388975E-02, -1.999651127438300E-03,  2.912659170833114E-02,  2.574554024126422E-03,  2.105487476273360E-03,  3.645538556795643E-01, -5.791911415543226E-03,
2582327.500000000, A.D. 2358-Jan-27 00:00:00.0000, -3.413517596276744E-01,  1.139033178023433E-01,  4.037303912221384E-02, -1.473539541019233E-02, -2.553870610500654E-02, -7.592411684500900E-04,  2.091383468089175E-03,  3.621118223632791E-01,  5.772683441540269E-03,
2582357.500000000, A.D. 2358-Feb-26 00:00:00.0000, -8.046370595999090E-02, -4.586438962013080E-01, -3.036840454339315E-02,  2.205488782421287E-02, -3.489171139234386E-03, -2.290558140618133E-03,  2.695075385287800E-03,  4.666378376150430E-01, -2.245217990625317E-04,
2582387.500000000, A.D. 2358-Mar-28 00:00:00.0000,  3.512751261125235E-01,  1.488562696462052E-02, -3.069378133904023E-02, -6.640194984805667E-03,  2.931382732946184E-02,  3.011574330635248E-03,  2.038339933821683E-03,  3.529276191067907E-01, -5.634631942921839E-03,
2582417.500000000, A.D. 2358-Apr-27 00:00:00.0000, -3.669080135384591E-01,  6.083774011566432E-02,  3.833511768211666E-02, -1.045709165357257E-02, -2.660034002907655E-02, -1.235202321475157E-03,  2.159397505536098E-03,  3.738880878937185E-01,  5.806910132389252E-03,
2582447.500000000, A.D. 2358-May-27 00:00:00.0000, -3.527767676258601E-02, -4.629602624045794E-01, -3.482879388291463E-02,  2.239819335044983E-02, -7.537181358577737E-04, -2.097005102216128E-03,  2.689121053462860E-03,  4.656068770183932E-01, -7.907497479600516E-04,
2582477.500000000, A.D. 2358-Jun-26 00:00:00.0000,  3.328302585384270E-01,  7.391430893559853E-02, -2.416826509108102E-02, -1.155941969397483E-02,  2.866818938171232E-02,  3.405492259090710E-03,  1.974039816279757E-03,  3.417943988740834E-01, -5.297453920729885E-03,
2582507.500000000, A.D. 2358-Jul-26 00:00:00.0000, -3.839205370835880E-01,  6.324539090979938E-03,  3.540213078523089E-02, -6.329390084517036E-03, -2.697436715356374E-02, -1.640982501054517E-03,  2.227046829269575E-03,  3.856012052022122E-01,  5.708716918737786E-03,
2582537.500000000, A.D. 2358-Aug-25 00:00:00.0000,  1.033648838082262E-02, -4.616789486313801E-01, -3.886811267885391E-02,  2.247271412487090E-02,  2.019682991961540E-03, -1.875913632717967E-03,  2.676533878398849E-03,  4.634274752155287E-01, -1.353486754569767E-03,
2582567.500000000, A.D. 2358-Sep-24 00:00:00.0000,  3.042400894191912E-01,  1.306734536367216E-01, -1.690729564739614E-02, -1.659292713454128E-02,  2.704381436154237E-02,  3.729381724472623E-03,  1.914856010811628E-03,  3.315470406160405E-01, -4.757631886783276E-03,
2582597.500000000, A.D. 2358-Oct-24 00:00:00.0000, -3.927717512081632E-01, -4.833695014110356E-02,  3.171541564303308E-02, -2.427404096643623E-03, -2.676719033924874E-02, -1.978504540264616E-03,  2.292902431202001E-03,  3.970037492083432E-01,  5.502494657252601E-03,
2582627.500000000, A.D. 2358-Nov-23 00:00:00.0000,  5.582043354386552E-02, -4.547371474550889E-01, -4.243056918509729E-02,  2.227036063743111E-02,  4.817643843815027E-03, -1.627646538033023E-03,  2.657379608869193E-03,  4.601110162536730E-01, -1.909448878542181E-03,
2582657.500000000, A.D. 2358-Dec-23 00:00:00.0000,  2.655121386701648E-01,  1.830365720987359E-01, -9.086335746069785E-03, -2.150275100755964E-02,  2.433149277952576E-02,  3.952647119558850E-03,  1.863279639515190E-03,  3.226168687532486E-01, -4.003521138572533E-03,
2582687.500000000, A.D. 2359-Jan-22 00:00:00.0000, -3.939667760365541E-01, -1.020600581107791E-01,  2.740997767135073E-02,  1.204418816997661E-03, -2.607623908295570E-02, -2.251735436009487E-03,  2.355798337798112E-03,  4.078938378526402E-01,  5.209986674355286E-03,
